[{"OBJECT_NAME":"BASIL","OBJECT_ID":"2025-185E","EPOCH":"2026-03-09T17:13:07.241088","MEAN_MOTION":14.77353126,"ECCENTRICITY":0.00114241,"INCLINATION":97.9635,"RA_OF_ASC_NODE":153.1696,"ARG_OF_PERICENTER":56.4063,"MEAN_ANOMALY":303.8236,"EPHEMERIS_TYPE":0,"CLASSIFICATION_TYPE":"U","NORAD_CAT_ID":65301,"ELEMENT_SET_NO":999,"REV_AT_EPOCH":2914,"BSTAR":0.00086699365,"MEAN_MOTION_DOT":6.12e-5,"MEAN_MOTION_DDOT":0},{"OBJECT_NAME":"CZ-6A DEB","OBJECT_ID":"2022-151GA","EPOCH":"2026-03-09T16:26:30.012576","MEAN_MOTION":14.43729631,"ECCENTRICITY":0.01457376,"INCLINATION":98.6751,"RA_OF_ASC_NODE":124.4602,"ARG_OF_PERICENTER":285.3969,"MEAN_ANOMALY":73.1161,"EPHEMERIS_TYPE":0,"CLASSIFICATION_TYPE":"U","NORAD_CAT_ID":54450,"ELEMENT_SET_NO":999,"REV_AT_EPOCH":17462,"BSTAR":0.0002763512,"MEAN_MOTION_DOT":1.014e-5,"MEAN_MOTION_DDOT":0}]
